IONOSFERA-M 4           
1 64877U 25155B   26176.86807063  .00000045  00000+0  39945-4 0  9992
2 64877  98.6026 138.4719 0001353 116.5175 243.6142 14.21490218 47630
MICROCARB               
1 64899U 25156A   26176.71236859  .00000512  00000+0  88359-4 0  9992
2 64899  97.9923 253.7021 0015423 239.1278 120.8413 14.72531625 49226
CO3D 3                  
1 64900U 25156B   26176.61294453  .00005128  00000+0  23973-3 0  9996
2 64900  97.4333 255.1847 0001796 121.9016 238.2394 15.20214653 50819
CO3D 4                  
1 64901U 25156C   26176.81056804  .00005180  00000+0  24232-3 0  9992
2 64901  97.4333 255.3798 0000352 188.2763 171.8466 15.20193645 50841
CO3D 2                  
1 64902U 25156D   26176.84304819  .00005070  00000+0  23719-3 0  9995
2 64902  97.4334 255.3104 0001526 101.4504 258.6902 15.20198407 50848
CO3D 1                  
1 64903U 25156E   26176.84319589  .00004870  00000+0  22799-3 0  9990
2 64903  97.4333 255.3107 0001359 109.4548 250.6834 15.20192019 50840
PRSC-S1                 
1 65055U 25164A   26176.61721671  .00004167  00000+0  28863-3 0  9999
2 65055  41.1298 240.3324 0005348  43.8903 316.2335 15.06518909 49700
SENTINEL-6B             
1 66514U 25264A   26176.83033618 -.00000073  00000+0 -50342-4 0  9994
2 66514  66.0407 117.2268 0007963 269.0145  90.9958 12.80930000 28278
CAS500-3                
1 66655U 25274F   26176.75355713  .00001236  00000+0  13930-3 0  9996
2 66655  97.7445 104.6098 0006961  88.4949 271.7065 14.88340069 31429
CSG-3                   
1 67304U 26001A   26176.50282753  .00000320  00000+0  46735-4 0  9996
2 67304  97.8888 359.9841 0001438  96.1895 263.9482 14.82158954 25696
PRSC-E03                
1 68835U 26092A   26176.80394515  .00002983  00000+0  20417-3 0  9994
2 68835  38.0020  38.8677 0002657  90.7848 269.3218 15.06710779  9250
CAS500-2                
1 69013U 26100AK  26176.70671905  .00007778  00000+0  35661-3 0  9997
2 69013  97.3906  74.4104 0009675   8.0618 352.0771 15.20684245  8106
