OBJECT_NAME,OBJECT_ID,EPOCH,MEAN_MOTION,ECCENTRICITY,INCLINATION,RA_OF_ASC_NODE,ARG_OF_PERICENTER,MEAN_ANOMALY,EPHEMERIS_TYPE,CLASSIFICATION_TYPE,NORAD_CAT_ID,ELEMENT_SET_NO,REV_AT_EPOCH,BSTAR,MEAN_MOTION_DOT,MEAN_MOTION_DDOT
IONOSFERA-M 4,2025-155B,2026-06-25T20:50:01.302432,14.21490218,.0001353,98.6026,138.4719,116.5175,243.6142,0,U,64877,999,4763,.39945E-4,.45E-6,0
MICROCARB,2025-156A,2026-06-25T17:05:48.646176,14.72531625,.0015423,97.9923,253.7021,239.1278,120.8413,0,U,64899,999,4922,.88359E-4,.512E-5,0
CO3D 3,2025-156B,2026-06-25T14:42:38.407392,15.20214653,.0001796,97.4333,255.1847,121.9016,238.2394,0,U,64900,999,5081,.23973E-3,.5128E-4,0
CO3D 4,2025-156C,2026-06-25T19:27:13.078656,15.20193645,.0000352,97.4333,255.3798,188.2763,171.8466,0,U,64901,999,5084,.24232E-3,.518E-4,0
CO3D 2,2025-156D,2026-06-25T20:13:59.363616,15.20198407,.0001526,97.4334,255.3104,101.4504,258.6902,0,U,64902,999,5084,.23719E-3,.507E-4,0
CO3D 1,2025-156E,2026-06-25T20:14:12.124896,15.20192019,.0001359,97.4333,255.3107,109.4548,250.6834,0,U,64903,999,5084,.22799E-3,.487E-4,0
PRSC-S1,2025-164A,2026-06-25T14:48:47.523744,15.06518909,.0005348,41.1298,240.3324,43.8903,316.2335,0,U,65055,999,4970,.28863E-3,.4167E-4,0
SENTINEL-6B,2025-264A,2026-06-25T19:55:41.045952,12.80930000,.0007963,66.0407,117.2268,269.0145,90.9958,0,U,66514,999,2827,-.50342E-4,-.73E-6,0
CAS500-3,2025-274F,2026-06-25T18:05:07.336032,14.88340069,.0006961,97.7445,104.6098,88.4949,271.7065,0,U,66655,999,3142,.1393E-3,.1236E-4,0
CSG-3,2026-001A,2026-06-25T12:04:04.298592,14.82158954,.0001438,97.8888,359.9841,96.1895,263.9482,0,U,67304,999,2569,.46735E-4,.32E-5,0
PRSC-E03,2026-092A,2026-06-25T19:17:40.860960,15.06710779,.0002657,38.0020,38.8677,90.7848,269.3218,0,U,68835,999,925,.20417E-3,.2983E-4,0
CAS500-2,2026-100AK,2026-06-25T16:57:40.525920,15.20684245,.0009675,97.3906,74.4104,8.0618,352.0771,0,U,69013,999,810,.35661E-3,.7778E-4,0
